[{"OBJECT_NAME":"STARLINK-32675","OBJECT_ID":"2024-229S","EPOCH":"2026-03-09T19:58:27.301152","MEAN_MOTION":15.27587577,"ECCENTRICITY":0.00015385,"INCLINATION":43.0001,"RA_OF_ASC_NODE":269.8674,"ARG_OF_PERICENTER":270.3608,"MEAN_ANOMALY":89.7067,"EPHEMERIS_TYPE":0,"CLASSIFICATION_TYPE":"U","NORAD_CAT_ID":62208,"ELEMENT_SET_NO":999,"REV_AT_EPOCH":7058,"BSTAR":0.0010322731,"MEAN_MOTION_DOT":0.00028259,"MEAN_MOTION_DDOT":0},{"OBJECT_NAME":"GEOSCAN 5 (RS92S5)","OBJECT_ID":"2025-155R","EPOCH":"2026-03-09T22:01:07.273920","MEAN_MOTION":15.30265233,"ECCENTRICITY":0.00070849,"INCLINATION":97.4462,"RA_OF_ASC_NODE":37.7456,"ARG_OF_PERICENTER":154.5846,"MEAN_ANOMALY":205.5745,"EPHEMERIS_TYPE":0,"CLASSIFICATION_TYPE":"U","NORAD_CAT_ID":64891,"ELEMENT_SET_NO":999,"REV_AT_EPOCH":6562,"BSTAR":0.00068639307,"MEAN_MOTION_DOT":0.00020065,"MEAN_MOTION_DDOT":0}]
